ONEWEB-0597             
1 54663U 22166X   25298.02314654  .00001834  00000+0  44098-2 0  9994
2 54663  87.9166 290.9112 0001637  81.7023 278.4297 13.21813046140479
ONEWEB-0600             
1 54664U 22166Y   25298.00503686  .00001474  00000+0  35376-2 0  9997
2 54664  87.9166 290.9068 0001871  91.9998 268.1350 13.21820921140447
ONEWEB-0601             
1 54665U 22166Z   25298.07250906 -.00000064  00000+0 -18736-3 0  9997
2 54665  87.9167 290.9108 0001609  83.1684 276.9633 13.21825572140648
ONEWEB-0602             
1 54666U 22166AA  25298.03710328  .00007728  00000+0  18676-1 0  9996
2 54666  87.9171 290.9208 0001588  98.4627 261.6687 13.21783762140483
ONEWEB-0603             
1 54667U 22166AB  25298.04288564  .00000885  00000+0  21114-2 0  9999
2 54667  87.9176 290.8556 0001740  89.1708 270.9625 13.21820243140415
ONEWEB-0604             
1 54668U 22166AC  25298.03133736  .00000018  00000+0  11411-4 0  9998
2 54668  87.9167 290.8814 0001668  90.7180 269.4145 13.21825460140375
ONEWEB-0605             
1 54669U 22166AD  25298.02478345  .00001408  00000+0  33785-2 0  9996
2 54669  87.9162 290.9116 0001614  67.6789 292.4516 13.21814005140445
ONEWEB-0606             
1 54670U 22166AE  25298.04617765  .00000660  00000+0  15659-2 0  9990
2 54670  87.9166 290.9177 0002041  90.3770 269.7598 13.21819486140508
